IRIDIUM 156             
1 43576U 18061H   26163.79178697  .00000255  00000+0  84120-4 0  9993
2 43576  86.3962  58.5674 0002099  81.4547 278.6887 14.34217687412742
IRIDIUM 164             
1 43577U 18061J   26163.77276013  .00000068  00000+0  17322-4 0  9995
2 43577  86.3965  58.6156 0002104  88.8341 271.3095 14.34217684412784
IRIDIUM 159             
1 43578U 18061K   26163.81081553  .00000176  00000+0  55954-4 0  9997
2 43578  86.3963  58.5366 0002298  84.0672 276.0786 14.34217885412753
IRIDIUM 180             
1 43922U 19002A   26163.81031164 -.00000019  00000+0 -13911-4 0  9994
2 43922  86.3968 355.4277 0002143  89.0819 271.0623 14.34217372388363
IRIDIUM 176             
1 43923U 19002B   26163.80903568  .00000765  00000+0  11739-3 0  9991
2 43923  86.6092 355.3725 0002243  91.8405 268.3069 14.72261896398608
IRIDIUM 168             
1 43924U 19002C   26163.80396916  .00000057  00000+0  13363-4 0  9995
2 43924  86.3973 355.5076 0002162  88.9140 271.2303 14.34217964388347
IRIDIUM 173             
1 43925U 19002D   26163.23313586  .00000007  00000+0 -45831-5 0  9997
2 43925  86.3965 355.6351 0002125  86.5579 273.5860 14.34217070388245
IRIDIUM 169             
1 43926U 19002E   26163.87022995  .00000233  00000+0  69775-4 0  9991
2 43926  86.4229  26.9984 0002012  71.2064 288.9353 14.38606977389605
IRIDIUM 172             
1 43927U 19002F   26163.08725500  .00000212  00000+0  68794-4 0  9994
2 43927  86.3969 355.7044 0002252  89.2492 270.8962 14.34217202388235
IRIDIUM 175             
1 43928U 19002G   26163.83968738  .00000282  00000+0  77192-4 0  9999
2 43928  86.4509 292.3384 0001923 194.7707 165.3438 14.43610481398351
IRIDIUM 171             
1 43929U 19002H   26163.27753299 -.00000256  00000+0 -98662-4 0  9990
2 43929  86.3975 355.9303 0001933  87.0719 273.0698 14.34216679388257
IRIDIUM 170             
1 43930U 19002J   26163.27147958  .00000743  00000+0  11393-3 0  9995
2 43930  86.6090 355.5996 0002358  88.1371 272.0117 14.72261428398533
IRIDIUM 167             
1 43931U 19002K   26163.82933873  .00000046  00000+0  94973-5 0  9999
2 43931  86.3971 355.4162 0001863  88.6542 271.4867 14.34217861388330
IRIDIUM 181             
1 56726U 23068S   26163.80803433  .00000297  00000+0  82295-4 0  9999
2 56726  86.4502  58.6212 0002341  89.6506 270.4963 14.43312505161806
IRIDIUM 177             
1 56727U 23068T   26163.86086470  .00001033  00000+0  13244-3 0  9996
2 56727  86.1958 330.8466 0002394  87.0991 273.0504 14.80222804165721
IRIDIUM 174             
1 56728U 23068U   26163.80287019  .00000789  00000+0  12125-3 0  9997
2 56728  86.6098 355.5244 0002524  84.4918 275.6587 14.72258537165378
IRIDIUM 178             
1 56729U 23068V   26163.10637517  .00000820  00000+0  10445-3 0  9992
2 56729  86.6542  27.4837 0002674  87.3763 272.7765 14.80224938165612
IRIDIUM 179             
1 56730U 23068W   26163.16858493  .00000984  00000+0  12602-3 0  9996
2 56730  86.6781  36.4225 0002396  88.3047 271.8449 14.80237858165622
