OBJECT_NAME,OBJECT_ID,EPOCH,MEAN_MOTION,ECCENTRICITY,INCLINATION,RA_OF_ASC_NODE,ARG_OF_PERICENTER,MEAN_ANOMALY,EPHEMERIS_TYPE,CLASSIFICATION_TYPE,NORAD_CAT_ID,ELEMENT_SET_NO,REV_AT_EPOCH,BSTAR,MEAN_MOTION_DOT,MEAN_MOTION_DDOT
IRIDIUM 156,2018-061H,2026-06-12T19:00:10.394208,14.34217687,.0002099,86.3962,58.5674,81.4547,278.6887,0,U,43576,999,41274,.8412E-4,.255E-5,0
IRIDIUM 164,2018-061J,2026-06-12T18:32:46.475232,14.34217684,.0002104,86.3965,58.6156,88.8341,271.3095,0,U,43577,999,41278,.17322E-4,.68E-6,0
IRIDIUM 159,2018-061K,2026-06-12T19:27:34.461792,14.34217885,.0002298,86.3963,58.5366,84.0672,276.0786,0,U,43578,999,41275,.55954E-4,.176E-5,0
IRIDIUM 180,2019-002A,2026-06-12T19:26:50.925696,14.34217372,.0002143,86.3968,355.4277,89.0819,271.0623,0,U,43922,999,38836,-.13911E-4,-.19E-6,0
IRIDIUM 176,2019-002B,2026-06-12T19:25:00.682752,14.72261896,.0002243,86.6092,355.3725,91.8405,268.3069,0,U,43923,999,39860,.11739E-3,.765E-5,0
IRIDIUM 168,2019-002C,2026-06-12T19:17:42.935424,14.34217964,.0002162,86.3973,355.5076,88.9140,271.2303,0,U,43924,999,38834,.13363E-4,.57E-6,0
IRIDIUM 173,2019-002D,2026-06-12T05:35:42.938304,14.34217070,.0002125,86.3965,355.6351,86.5579,273.5860,0,U,43925,999,38824,-.4583129E-5,.7E-7,0
IRIDIUM 169,2019-002E,2026-06-12T20:53:07.867680,14.38606977,.0002012,86.4229,26.9984,71.2064,288.9353,0,U,43926,999,38960,.69775E-4,.233E-5,0
IRIDIUM 172,2019-002F,2026-06-12T02:05:38.832000,14.34217202,.00022526,86.3969,355.7044,89.2492,270.8962,0,U,43927,999,38823,.68794071E-4,.212E-5,0
IRIDIUM 175,2019-002G,2026-06-12T20:09:08.989632,14.43610481,.0001923,86.4509,292.3384,194.7707,165.3438,0,U,43928,999,39835,.77192E-4,.282E-5,0
IRIDIUM 171,2019-002H,2026-06-12T06:39:38.850336,14.34216679,.00019334,86.3975,355.9303,87.0719,273.0698,0,U,43929,999,38825,-.98662009E-4,-.256E-5,0
IRIDIUM 170,2019-002J,2026-06-12T06:30:55.835712,14.72261428,.00023587,86.6090,355.5996,88.1371,272.0117,0,U,43930,999,39853,.11392557E-3,.743E-5,0
IRIDIUM 167,2019-002K,2026-06-12T19:54:14.866272,14.34217861,.0001863,86.3971,355.4162,88.6542,271.4867,0,U,43931,999,38833,.94973E-5,.46E-6,0
IRIDIUM 181,2023-068S,2026-06-12T19:23:34.166112,14.43312505,.0002341,86.4502,58.6212,89.6506,270.4963,0,U,56726,999,16180,.82295E-4,.297E-5,0
IRIDIUM 177,2023-068T,2026-06-12T20:39:38.710080,14.80222804,.0002394,86.1958,330.8466,87.0991,273.0504,0,U,56727,999,16572,.13244E-3,.1033E-4,0
IRIDIUM 174,2023-068U,2026-06-12T19:16:07.984416,14.72258537,.0002524,86.6098,355.5244,84.4918,275.6587,0,U,56728,999,16537,.12125E-3,.789E-5,0
IRIDIUM 178,2023-068V,2026-06-12T02:33:10.814688,14.80224938,.00026749,86.6542,27.4837,87.3763,272.7765,0,U,56729,999,16561,.10445051E-3,.82E-5,0
IRIDIUM 179,2023-068W,2026-06-12T04:02:45.737952,14.80237858,.00023965,86.6781,36.4225,88.3047,271.8449,0,U,56730,999,16562,.12602225E-3,.984E-5,0
